[{"OBJECT_NAME":"STARLINK-4426","OBJECT_ID":"2022-099V","EPOCH":"2026-03-09T20:59:05.066016","MEAN_MOTION":15.05654177,"ECCENTRICITY":5.881e-5,"INCLINATION":97.6033,"RA_OF_ASC_NODE":191.3741,"ARG_OF_PERICENTER":182.7659,"MEAN_ANOMALY":177.3565,"EPHEMERIS_TYPE":0,"CLASSIFICATION_TYPE":"U","NORAD_CAT_ID":53484,"ELEMENT_SET_NO":999,"REV_AT_EPOCH":19607,"BSTAR":0.00015015842,"MEAN_MOTION_DOT":2.107e-5,"MEAN_MOTION_DDOT":0},{"OBJECT_NAME":"DELTA 1 DEB","OBJECT_ID":"1984-088H","EPOCH":"2026-03-07T01:46:35.708160","MEAN_MOTION":10.96349714,"ECCENTRICITY":0.19067429,"INCLINATION":28.7214,"RA_OF_ASC_NODE":43.7787,"ARG_OF_PERICENTER":322.2532,"MEAN_ANOMALY":25.8125,"EPHEMERIS_TYPE":0,"CLASSIFICATION_TYPE":"U","NORAD_CAT_ID":19599,"ELEMENT_SET_NO":999,"REV_AT_EPOCH":22596,"BSTAR":0.0011350644,"MEAN_MOTION_DOT":1.85e-5,"MEAN_MOTION_DDOT":0}]
